[
  {
    "Name": "Balbriggan Garda Station",
    "Address1": "Drogheda Road",
    "Address2": "Balbriggan",
    "Address3": "Co. Dublin",
    "Phone": "+353 1 8020510",
    "Website": "http://www.garda.ie/Stations/Default.aspx",
    "Division": "Dublin Metropolitan Region Northern Division",
    "Divisional_HQ": "Ballymun",
    "Divisional_HQ_Phone": "+353 1 6664493",
    "District": "Balbriggan",
    "District_HQ": "Balbriggan",
    "District_HQ_Phone": "+353 1 8020510",
    "Opening_Hours": "Open 24hrs",
    "LAT": 53.6143781459678,
    "LONG": -6.19105291877873
  },
  {
    "Name": "Skerries Garda Station",
    "Address1": "Strand Street",
    "Address2": "Skerries",
    "Address3": "Co. Dublin",
    "Phone": "+353 1 8491211",
    "Website": "http://www.garda.ie/Stations/Default.aspx",
    "Division": "Dublin Metropolitan Region Northern Division",
    "Divisional_HQ": "Ballymun",
    "Divisional_HQ_Phone": "+353 1 6664493",
    "District": "Balbriggan",
    "District_HQ": "Balbriggan",
    "District_HQ_Phone": "+353 1 8020510",
    "Opening_Hours": "Closes at 9pm",
    "LAT": 53.5795903768001,
    "LONG": -6.1069616104728
  },
  {
    "Name": "Lusk Garda Station",
    "Address1": "Dublin Road",
    "Address2": "Lusk",
    "Address3": "Co. Dublin",
    "Phone": "+353 1 8437222",
    "Website": "http://www.garda.ie/Stations/Default.aspx",
    "Division": "Dublin Metropolitan Region Northern Division",
    "Divisional_HQ": "Ballymun",
    "Divisional_HQ_Phone": "+353 1 6664493",
    "District": "Balbriggan",
    "District_HQ": "Balbriggan",
    "District_HQ_Phone": "+353 1 8020510",
    "Opening_Hours": "Closes at 9pm",
    "LAT": 53.5234353877583,
    "LONG": -6.16733534648569
  },
  {
    "Name": "Malahide Garda Station",
    "Address1": "1-2 St. James Terrace",
    "Address2": "Malahide",
    "Address3": "Co. Dublin",
    "Phone": "+353 1 6664600",
    "Website": "http://www.garda.ie/Stations/Default.aspx",
    "Division": "Dublin Metropolitan Region Northern Division",
    "Divisional_HQ": "Ballymun",
    "Divisional_HQ_Phone": "+353 1 6664493",
    "District": "Coolock",
    "District_HQ": "Coolock",
    "District_HQ_Phone": "+353 1 6664282",
    "Opening_Hours": "Closes at 9pm",
    "LAT": 53.451109266817,
    "LONG": -6.15189702223919
  },
  {
    "Name": "Swords Garda Station",
    "Address1": "Main Street",
    "Address2": "Swords",
    "Address3": "Co. Dublin",
    "Phone": "+353 1 6664700",
    "Website": "http://www.garda.ie/Stations/Default.aspx",
    "Division": "Dublin Metropolitan Region Northern Division",
    "Divisional_HQ": "Ballymun",
    "Divisional_HQ_Phone": "+353 1 6664493",
    "District": "Coolock",
    "District_HQ": "Coolock",
    "District_HQ_Phone": "+353 1 6664282",
    "Opening_Hours": "Open 24hrs",
    "LAT": 53.4560671353432,
    "LONG": -6.22116473435358
  },
  {
    "Name": "Dublin Airport Garda Station",
    "Address1": "Dublin Airport",
    "Address2": "Cloghran",
    "Address3": "Co. Dublin",
    "Phone": "+353 1 6664950",
    "Website": "http://www.garda.ie/Stations/Default.aspx",
    "Division": "Dublin Metropolitan Region Northern Division",
    "Divisional_HQ": "Ballymun",
    "Divisional_HQ_Phone": "+353 1 6664493",
    "District": "Ballymun",
    "District_HQ": "Ballymun",
    "District_HQ_Phone": "+353 1 6664483",
    "Opening_Hours": "Closes at 9pm",
    "LAT": 53.4297783724185,
    "LONG": -6.24504100410432
  },
  {
    "Name": "Howth Garda Station",
    "Address1": "Dunbo Hill",
    "Address2": "Howth",
    "Address3": "Co. Dublin",
    "Phone": "+353 1 6664900",
    "Website": "http://www.garda.ie/Stations/Default.aspx",
    "Division": "Dublin Metropolitan Region Northern Division",
    "Divisional_HQ": "Ballymun",
    "Divisional_HQ_Phone": "+353 1 6664493",
    "District": "Raheny",
    "District_HQ": "Raheny",
    "District_HQ_Phone": "+353 1 6664382",
    "Opening_Hours": "Closes at 9pm",
    "LAT": 53.3873550645323,
    "LONG": -6.06897754903133
  },
  {
    "Name": "Garristown Garda Station",
    "Address1": "Garristown",
    "Address2": "Co. Dublin",
    "Address3": "",
    "Phone": "+353 1 8354112",
    "Website": "http://www.garda.ie/Stations/Default.aspx",
    "Division": "Dublin Metropolitan Region Northern Division",
    "Divisional_HQ": "Ballymun",
    "Divisional_HQ_Phone": "+353 1 6664493",
    "District": "Balbriggan",
    "District_HQ": "Balbriggan",
    "District_HQ_Phone": "+353 1 8020510",
    "Opening_Hours": "Closes at 9pm",
    "LAT": 53.5670517146016,
    "LONG": -6.38386916128394
  },
  {
    "Name": "Blanchardstown Garda Station",
    "Address1": "Main Street",
    "Address2": "Blanchardstown",
    "Address3": "Dublin 15",
    "Phone": "+353 1 6667000",
    "Website": "http://www.garda.ie/Stations/Default.aspx",
    "Division": "Dublin Metropolitan Region Western Division",
    "Divisional_HQ": "Blanchardstown",
    "Divisional_HQ_Phone": "+353 1 6667000",
    "District": "Blanchardstown",
    "District_HQ": "Blanchardstown",
    "District_HQ_Phone": "+353 1 6667082",
    "Opening_Hours": "Open 24hrs",
    "LAT": 53.3897839588485,
    "LONG": -6.3807707452975
  },
  {
    "Name": "Ashbourne Garda Station",
    "Address1": "Ashbourne",
    "Address2": "Co. Meath",
    "Address3": "",
    "Phone": "+353 1 8010600",
    "Website": "http://www.garda.ie/Stations/Default.aspx",
    "Division": "Meath Division",
    "Divisional_HQ": "Navan",
    "Divisional_HQ_Phone": "+353 46 9036300",
    "District": "Ashbourne",
    "District_HQ": "Ashbourne",
    "District_HQ_Phone": "+353 1 8010600",
    "Opening_Hours": "Open 24hrs",
    "LAT": 53.5113816620039,
    "LONG": -6.39698030788465
  },
  {
    "Name": "Dunboyne Garda Station",
    "Address1": "Dunboyne",
    "Address2": "Co. Meath",
    "Address3": "",
    "Phone": "+353 1 8252211",
    "Website": "http://www.garda.ie/Stations/Default.aspx",
    "Division": "Meath Division",
    "Divisional_HQ": "Navan",
    "Divisional_HQ_Phone": "+353 46 9036300",
    "District": "Ashbourne",
    "District_HQ": "Ashbourne",
    "District_HQ_Phone": "+353 1 8010600",
    "Opening_Hours": "Closes at 9pm",
    "LAT": 53.4209513717728,
    "LONG": -6.47696339790661
  },
  {
    "Name": "Leixlip Garda Station",
    "Address1": "Leixlip",
    "Address2": "Co. Kildare",
    "Address3": "",
    "Phone": "+353 1 6667800",
    "Website": "http://www.garda.ie/Stations/Default.aspx",
    "Division": "Kildare Division",
    "Divisional_HQ": "Naas",
    "Divisional_HQ_Phone": "+353 45 884311",
    "District": "Leixlip",
    "District_HQ": "Leixlip",
    "District_HQ_Phone": "+353 1 6667800",
    "Opening_Hours": "Open 24hrs",
    "LAT": 53.3674665276442,
    "LONG": -6.49833624071316
  },
  {
    "Name": "Lucan Garda Station",
    "Address1": "Main Street",
    "Address2": "Lucan",
    "Address3": "Co. Dublin",
    "Phone": "+353 1 6667300",
    "Website": "http://www.garda.ie/Stations/Default.aspx",
    "Division": "Dublin Metropolitan Region Western Division",
    "Divisional_HQ": "Blanchardstown",
    "Divisional_HQ_Phone": "+353 1 6667000",
    "District": "Lucan",
    "District_HQ": "Lucan",
    "District_HQ_Phone": "+353 1 6667382",
    "Opening_Hours": "Open 24hrs",
    "LAT": 53.356085055692,
    "LONG": -6.45065946401336
  },
  {
    "Name": "Finglas Garda Station",
    "Address1": "Mellowes Road",
    "Address2": "Finglas",
    "Address3": "Dublin 11",
    "Phone": "+353 1 6667500",
    "Website": "http://www.garda.ie/Stations/Default.aspx",
    "Division": "Dublin Metropolitan Region Western Division",
    "Divisional_HQ": "Blanchardstown",
    "Divisional_HQ_Phone": "+353 1 6667000",
    "District": "Blanchardstown",
    "District_HQ": "Blanchardstown",
    "District_HQ_Phone": "+353 1 6667082",
    "Opening_Hours": "Open 24hrs",
    "LAT": 53.3896714248585,
    "LONG": -6.3068211015613
  },
  {
    "Name": "Ballymun Garda Station",
    "Address1": "Main Street",
    "Address2": "Ballymun",
    "Address3": "Dublin 9",
    "Phone": "+353 1 6664400",
    "Website": "http://www.garda.ie/Stations/Default.aspx",
    "Division": "Dublin Metropolitan Region Northern Division",
    "Divisional_HQ": "Ballymun",
    "Divisional_HQ_Phone": "+353 1 6664493",
    "District": "Ballymun",
    "District_HQ": "Ballymun",
    "District_HQ_Phone": "+353 1 6664483",
    "Opening_Hours": "Open 24hrs",
    "LAT": 53.394578079053,
    "LONG": -6.26377177866851
  },
  {
    "Name": "Santry Garda Station",
    "Address1": "35-37 Shanowen Road",
    "Address2": "Santry",
    "Address3": "Dublin 9",
    "Phone": "+353 1 6664000",
    "Website": "http://www.garda.ie/Stations/Default.aspx",
    "Division": "Dublin Metropolitan Region Northern Division",
    "Divisional_HQ": "Ballymun",
    "Divisional_HQ_Phone": "+353 1 6664493",
    "District": "Ballymun",
    "District_HQ": "Ballymun",
    "District_HQ_Phone": "+353 1 6664483",
    "Opening_Hours": "Closes at 9pm",
    "LAT": 53.3896967123395,
    "LONG": -6.2505768748415
  },
  {
    "Name": "Coolock Garda Station",
    "Address1": "Oscar Traynor Road",
    "Address2": "Coolock",
    "Address3": "Dublin 5",
    "Phone": "+353 1 6664200",
    "Website": "http://www.garda.ie/Stations/Default.aspx",
    "Division": "Dublin Metropolitan Region Northern Division",
    "Divisional_HQ": "Ballymun",
    "Divisional_HQ_Phone": "+353 1 6664493",
    "District": "Coolock",
    "District_HQ": "Coolock",
    "District_HQ_Phone": "+353 1 6664282",
    "Opening_Hours": "Open 24hrs",
    "LAT": 53.3903303367227,
    "LONG": -6.20125561214133
  },
  {
    "Name": "Raheny Garda Station",
    "Address1": "All Saints Road",
    "Address2": "Raheny",
    "Address3": "Dublin 5",
    "Phone": "+353 1 6664300",
    "Website": "http://www.garda.ie/Stations/Default.aspx",
    "Division": "Dublin Metropolitan Region Northern Division",
    "Divisional_HQ": "Ballymun",
    "Divisional_HQ_Phone": "+353 1 6664493",
    "District": "Raheny",
    "District_HQ": "Raheny",
    "District_HQ_Phone": "+353 1 6664382",
    "Opening_Hours": "Open 24hrs",
    "LAT": 53.3789578350523,
    "LONG": -6.17814301895245
  }
]
